CCSDS_OEM_VERS = 2.0  
CREATION_DATE  = 2026-01-20T09:16:46
ORIGINATOR     = ESOC/OPS-GFA                            
 
 



META_START
OBJECT_NAME          = LISA                                    
OBJECT_ID            = -1000                                   
CENTER_NAME          = SUN                     
REF_FRAME            = EME2000 
TIME_SYSTEM          = TCB
START_TIME           = 2036-12-09T00:00:29.327664            
STOP_TIME            = 2047-09-09T13:05:22.587857            
INTERPOLATION        = HERMITE                                 
INTERPOLATION_DEGREE = 7                                       
META_STOP

2039-06-08T23:03:15.574280    -8.27146771652093232e+07   -1.15151123182408899e+08   -4.90940755010022521e+07    2.48381008839424879e+01   -1.48563827763719747e+01   -6.65640289478448910e+00    3.25014597129141916e-06    4.52456252054143473e-06    1.92902709113525612e-06
2039-06-22T10:53:10.642692    -5.18151274094790369e+07   -1.29252913808948487e+08   -5.54788803678030372e+07    2.79371933202194427e+01   -9.22559776192640157e+00   -4.24715491324275263e+00    2.04187049049780951e-06    5.09320139172921010e-06    2.18614450989325057e-06
2039-07-05T23:17:45.995714    -1.80921933742045835e+07   -1.36469410313749552e+08   -5.89088979791708067e+07    2.95552948777533686e+01   -3.07397994972005772e+00   -1.59901115774423186e+00    7.15357364437860753e-07    5.39473343027711755e-06    2.32870605887828380e-06
2039-07-19T09:52:29.506049     1.64060019982846975e+07   -1.36382045868748814e+08   -5.91843550101737231e+07    2.95940287398439068e+01    3.22725152453152919e+00    1.12822778895912856e+00   -6.50459970521032531e-07    5.40917397786380565e-06    2.34735344559679164e-06
2039-08-01T19:05:20.736699     4.98920527639656514e+07   -1.29078559664687559e+08   -5.63270071128049120e+07    2.80642740417623173e+01    9.35185083143309903e+00    3.79325002908927456e+00   -1.98503573972879159e-06    5.13627405895096217e-06    2.24134583896997648e-06
2039-08-15T05:19:54.867518     8.08273033939012587e+07   -1.14882116187406033e+08   -5.04627667133260891e+07    2.50288166133112284e+01    1.50166287961200968e+01    6.27290836414439923e+00   -3.22590647090841940e-06    4.58546313750229644e-06    2.01418998161015732e-06
2039-08-28T15:57:08.187814     1.07468054261331379e+08   -9.45158503993154466e+07   -4.18888157281634659e+07    2.06385471999466930e+01    1.98987803532929455e+01    8.42610033571950545e+00   -4.30086477303417671e-06    3.78280008003552445e-06    1.67650866412376808e-06
2039-09-11T02:41:39.778933     1.28339655638010129e+08   -6.90601079186936021e+07   -3.10594043288315684e+07    1.51249175419409152e+01    2.37234419766596467e+01    1.01317450600160370e+01   -5.14740379235451403e-06    2.77005541798245394e-06    1.24581541438495277e-06
2039-09-24T14:22:48.222899     1.42323725650925368e+08   -3.97931815359166712e+07   -1.85177032367339768e+07    8.76579638483818613e+00    2.62809199182500599e+01    1.12965482872350407e+01   -5.71705397177343497e-06    1.59864073433875091e-06    7.43923003348490207e-07
2039-10-08T02:51:22.752221     1.48585929665360987e+08   -8.28782107527969778e+06   -4.93692540618866868e+06    1.90615909884103374e+00    2.74147537473981764e+01    1.18496488785085177e+01   -5.97333600894187376e-06    3.33327884296806679e-07    1.98538047742402871e-07
2039-10-21T13:10:15.698491     1.46774481122669578e+08    2.34596061864310540e+07    8.82196196308353171e+06   -5.01435529419779069e+00    2.70594290883516351e+01    1.17586938998671400e+01   -5.90052126067525649e-06   -9.42974435958756620e-07   -3.54593555016755773e-07
2039-11-03T22:14:02.179039     1.37107493461017162e+08    5.38295526388476789e+07    2.20559277414525375e+07   -1.16372839146327678e+01    2.52565304194208835e+01    1.10384274127386774e+01   -5.50760601988328037e-06   -2.16220991007752975e-06   -8.85930918369859253e-07
2039-11-17T08:01:03.210249     1.20070097074670166e+08    8.13816459034742862e+07    3.41370735036690682e+07   -1.76438948767754304e+01    2.20989078257459255e+01    9.72614488929726839e+00   -4.81588083276458938e-06   -3.26401006351394082e-06   -1.36914947151617186e-06
2039-11-30T18:51:20.081174     9.65128486959319115e+07    1.04641310443362862e+08    4.44193753864561394e+07   -2.27097428506384986e+01    1.77483767007168680e+01    7.88894477486090206e+00   -3.86258288914362307e-06   -4.18774780646677586e-06   -1.77766418319377057e-06
2039-12-14T06:44:17.083521     6.76615066791602671e+07    1.22317322562804297e+08    5.23327708628242016e+07   -2.65529205056430477e+01    1.24362972054387608e+01    5.62441687341892838e+00   -2.70053992238713429e-06   -4.88176587837793307e-06   -2.08863591668629198e-06
2039-12-27T19:16:39.945164     3.50861367320051491e+07    1.33402404443482041e+08    5.74269824594910592e+07   -2.89561994326260113e+01    6.45647438139517682e+00    3.05776736621825451e+00   -1.39604701939588207e-06   -5.30748645255286009e-06   -2.28476375770137404e-06
2040-01-10T08:07:13.943339     5.80269015909507871e+05    1.37275872509152740e+08    5.94170478270828426e+07   -2.97889074283381277e+01    1.41577346108416435e-01    3.31811731367073204e-01   -2.31490158912637265e-08   -5.44321742291275479e-06   -2.35598516642356407e-06
2040-01-23T18:32:03.183123    -3.37044162621618882e+07    1.33792593966900989e+08    5.82206033558636755e+07   -2.90251850938179459e+01   -6.11343271342563455e+00   -2.38271831031446979e+00    1.33174704637092555e-06   -5.28714598985545375e-06   -2.30073085947433260e-06
2040-02-06T03:44:56.431910    -6.60885080176658630e+07    1.23269575645806968e+08    5.39596200773340240e+07   -2.67393571073776499e+01   -1.20033371054045297e+01   -4.95302861896966284e+00    2.60299510144594063e-06   -4.85553068837581822e-06   -2.12544366936780916e-06
2040-02-19T13:23:00.008967    -9.50427033789883703e+07    1.06255600861656085e+08    4.68577599799206629e+07   -2.30547764730646492e+01   -1.72528906750449735e+01   -7.25885482711031216e+00    3.73243424755889253e-06   -4.17303676462476013e-06   -1.84027060420579838e-06
2040-03-03T23:50:29.316723    -1.19069090827349395e+08    8.36066461543627381e+07    3.72719450657741651e+07   -1.81592842100137020e+01   -2.15946224529303237e+01   -9.18270955058853744e+00    4.66429362350470778e-06   -3.27532600493285612e-06   -1.46014143660679468e-06
2040-03-17T11:36:16.924535    -1.36895550817021191e+08    5.64461285354521275e+07    2.56769158177207001e+07   -1.22959528805239149e+01   -2.48032685659573779e+01   -1.06248755005169819e+01    5.35225626405760940e-06   -2.20705684144476222e-06   -1.00396839715813138e-06
2040-03-31T01:07:43.257558    -1.47519481691528171e+08    2.61307527961899750e+07    1.26508429072242621e+07   -5.75560557609986745e+00   -2.67025180162100568e+01   -1.15063926536706553e+01    5.76037546274614208e-06   -1.02048451968368209e-06   -4.94044747700782607e-07
2040-04-13T13:02:26.925837    -1.50273643285781205e+08   -5.42246444533257559e+06   -9.82516998781381175e+05    1.05216451978011705e+00   -2.71761127297875014e+01   -1.17732174596670198e+01    5.86495220058688541e-06    2.11537619754319784e-07    3.83087932949499741e-08
2040-04-26T23:44:29.098904    -1.45121609620739490e+08   -3.65749860711148679e+07   -1.45142241162857935e+07    7.77880581041985586e+00   -2.62198245125786364e+01   -1.14203550896933184e+01    5.66535145375493418e-06    1.42776495106480473e-06    5.66586622161546728e-07
2040-05-10T09:50:02.137389    -1.32387570645395219e+08   -6.57564584771966115e+07   -2.72615796511492096e+07    1.40901383232866220e+01   -2.38924754431406150e+01   -1.04702347212663494e+01    5.17345606832286184e-06    2.56956682416296604e-06    1.06530083517213038e-06
2040-05-23T20:06:01.948923    -1.12715598096470311e+08   -9.15104067850582451e+07   -3.85882758030096367e+07    1.96750769213512271e+01   -2.03088174707421949e+01   -8.96970367399620017e+00    4.41224213010357860e-06    3.58208896824884195e-06    1.51050150583185289e-06
2040-06-06T06:48:49.118453    -8.70920440028857887e+07   -1.12488593779263511e+08   -4.79017475262475461e+07    2.42434276392137562e+01   -1.56443288806929210e+01   -6.99208404270714912e+00    3.41714257603937235e-06    4.41348273666234697e-06    1.87942171046015439e-06
2040-06-19T18:27:59.336423    -5.67839323166352063e+07   -1.27569758780714616e+08   -5.47051312388442010e+07    2.75510669531461545e+01   -1.01249882228324850e+01   -4.63297803810481046e+00    2.23430556258352057e-06    5.01930694017015424e-06    2.15240470392335415e-06
2040-07-03T07:23:15.740120    -2.33225645232268088e+07   -1.35885038414789140e+08   -5.86084183310602307e+07    2.94054049415517973e+01   -4.02544300817825640e+00   -2.00952266018154635e+00    9.20690893974121907e-07    5.36347948972946563e-06    2.31331520712735071e-06
2040-07-16T18:22:50.603183     1.11858248842919283e+07   -1.36910432713582069e+08   -5.93656588385106847e+07    2.96853560812904149e+01    2.27310536820291009e+00    7.14372458973718594e-01   -4.42827420759080342e-07    5.42200506717402778e-06    2.35103183416484202e-06
2040-07-30T03:52:30.191811     4.49439806818819940e+07   -1.30683383783599764e+08   -5.69767385723221302e+07    2.83908868790181188e+01    8.44321601764429985e+00    3.39696878537451274e+00   -1.78561906602286949e-06    5.19260429413216061e-06    2.26392533701465573e-06
2040-08-12T14:04:23.818168     7.63847594172618687e+07   -1.17495908788939312e+08   -5.15538313195418343e+07    2.55778153039423657e+01    1.41969752857181444e+01    5.91313002590986869e+00   -3.04441346244809435e-06    4.68334359324350733e-06    2.05491415326922392e-06
2040-08-26T00:53:07.647734     1.03794446975080490e+08   -9.79937228259907663e+07   -4.33608835694667026e+07    2.13798459851922544e+01    1.92174708472339795e+01    8.12446291322732073e+00   -4.14851893076363834e-06    3.91698126312674349e-06    1.73320903981063705e-06
